IRIDIUM 921 [-]         
1 24873U 97034E   23334.21223145  .00023354  00000+0  84243-3 0  9992
2 24873  86.3878  26.1272 0002453 303.6494  56.4519 15.28400299444821
IRIDIUM 26 [-]          
1 24903U 97043A   23334.58406410  .00001002  00000+0  33784-3 0  9994
2 24903  86.3957 347.5187 0002269  95.5977 264.5478 14.36101583376154
IRIDIUM 22 [-]          
1 24907U 97043E   23334.55598535  .00000918  00000+0  31555-3 0  9994
2 24907  86.3964 350.6084 0002129  91.0624 269.0816 14.35006676375760
DUMMY MASS 1 [-]        
1 24925U 97048A   23334.67826132  .00000994  00000+0  11073-3 0  9996
2 24925  86.3368  36.1382 0006676   6.6331 353.4980 14.85948811421519
DUMMY MASS 2 [-]        
1 24926U 97048B   23334.68261679  .00000979  00000+0  10970-3 0  9995
2 24926  86.3368  37.6438 0007989  14.6833 345.4621 14.85709692421304
IRIDIUM 29 [-]          
1 24944U 97051A   23334.20382655  .00000989  00000+0  33754-3 0  9991
2 24944  86.3979  20.7132 0001925  87.4564 272.6853 14.35462680372412
IRIDIUM 33 [-]          
1 24946U 97051C   23334.67604842  .00000620  00000+0  21439-3 0  9998
2 24946  86.3893  19.7856 0009854 114.6082 245.6141 14.34190448371820
IRIDIUM 28 [-]          
1 24948U 97051E   23334.20016157  .00000852  00000+0  28429-3 0  9998
2 24948  86.3984  18.5560 0002458  99.3893 260.7582 14.36405733372785
